LIME                    
1 62648U 25009AR  26068.73906781  .00013254  00000+0  47723-3 0  9995
2 62648  97.3985 151.4831 0001635  35.9029 324.2320 15.28703313 63766
STARLINK-34192          
1 64014U 25101W   26068.18424442  .00024880  00000+0  91102-3 0  9992
2 64014  42.9995   1.1861 0000882 275.0953  84.9798 15.27565149 46977
